{
  "type": "FeatureCollection",
  "features": [
    {
      "type": "Feature",
      "properties": {
        "norad_id": 37238,
        "name": "INTELSAT 17 (IS-17)",
        "group": "intelsat",
        "lat": 0.004984730703185718,
        "lon": -100.95002325429441,
        "alt_km": 35776.17953449979,
        "timestamp": "2025-12-19T06:59:43.571660+00:00",
        "meta_object_name": "INTELSAT 17 (IS-17)",
        "meta_object_id": "2010-065B",
        "meta_epoch": "2025-12-18T22:12:38.740896",
        "meta_mean_motion": 1.00270741,
        "meta_eccentricity": 0.00027019,
        "meta_inclination": 0.007,
        "meta_ra_of_asc_node": 107.818,
        "meta_arg_of_pericenter": 178.517,
        "meta_mean_anomaly": 200.6105,
        "meta_ephemeris_type": 0,
        "meta_classification_type": "U",
        "meta_norad_cat_id": 37238,
        "meta_element_set_no": 999,
        "meta_rev_at_epoch": 5144,
        "meta_bstar": 0,
        "meta_mean_motion_dot": 2.3e-07,
        "meta_mean_motion_ddot": 0,
        "tle_line1": "1 37238U 10065B   25352.92544839  .00000023  00000+0  00000+0 0  9999",
        "tle_line2": "2 37238   0.0070 107.8180 0002701 178.5170 200.6105  1.00270741 51446"
      },
      "geometry": {
        "type": "Point",
        "coordinates": [
          -100.95002325429441,
          0.004984730703185718
        ]
      }
    },
    {
      "type": "Feature",
      "properties": {
        "norad_id": 37392,
        "name": "INTELSAT 28 (IS-28)",
        "group": "intelsat",
        "lat": 1.3080931663920623,
        "lon": 161.3332209937187,
        "alt_km": 35791.69311838535,
        "timestamp": "2025-12-19T06:59:43.571672+00:00",
        "meta_object_name": "INTELSAT 28 (IS-28)",
        "meta_object_id": "2011-016A",
        "meta_epoch": "2025-12-18T19:59:31.136928",
        "meta_mean_motion": 1.0027042,
        "meta_eccentricity": 0.0003678,
        "meta_inclination": 1.3395,
        "meta_ra_of_asc_node": 84.9911,
        "meta_arg_of_pericenter": 186.5384,
        "meta_mean_anomaly": 84.3542,
        "meta_ephemeris_type": 0,
        "meta_classification_type": "U",
        "meta_norad_cat_id": 37392,
        "meta_element_set_no": 999,
        "meta_rev_at_epoch": 5147,
        "meta_bstar": 0,
        "meta_mean_motion_dot": -2.01e-06,
        "meta_mean_motion_ddot": 0,
        "tle_line1": "1 37392U 11016A   25352.83299927 -.00000201  00000+0  00000+0 0  9991",
        "tle_line2": "2 37392   1.3395  84.9911 0003678 186.5384  84.3542  1.00270420 51477"
      },
      "geometry": {
        "type": "Point",
        "coordinates": [
          161.3332209937187,
          1.3080931663920623
        ]
      }
    },
    {
      "type": "Feature",
      "properties": {
        "norad_id": 37834,
        "name": "INTELSAT 18 (IS-18)",
        "group": "intelsat",
        "lat": 0.04138263019724098,
        "lon": 13.077503125598135,
        "alt_km": 35786.145702763606,
        "timestamp": "2025-12-19T06:59:43.571684+00:00",
        "meta_object_name": "INTELSAT 18 (IS-18)",
        "meta_object_id": "2011-056A",
        "meta_epoch": "2025-12-18T19:17:17.870784",
        "meta_mean_motion": 1.0027148,
        "meta_eccentricity": 0.0001621,
        "meta_inclination": 0.037,
        "meta_ra_of_asc_node": 278.1985,
        "meta_arg_of_pericenter": 4.8809,
        "meta_mean_anomaly": 273.903,
        "meta_ephemeris_type": 0,
        "meta_classification_type": "U",
        "meta_norad_cat_id": 37834,
        "meta_element_set_no": 999,
        "meta_rev_at_epoch": 5200,
        "meta_bstar": 0,
        "meta_mean_motion_dot": 7.8e-07,
        "meta_mean_motion_ddot": 0,
        "tle_line1": "1 37834U 11056A   25352.80367906  .00000078  00000+0  00000+0 0  9997",
        "tle_line2": "2 37834   0.0370 278.1985 0001621   4.8809 273.9030  1.00271480 52000"
      },
      "geometry": {
        "type": "Point",
        "coordinates": [
          13.077503125598135,
          0.04138263019724098
        ]
      }
    },
    {
      "type": "Feature",
      "properties": {
        "norad_id": 38098,
        "name": "INTELSAT 22 (IS-22)",
        "group": "intelsat",
        "lat": -0.00891193006760776,
        "lon": -94.83879804552848,
        "alt_km": 35779.2665618936,
        "timestamp": "2025-12-19T06:59:43.571696+00:00",
        "meta_object_name": "INTELSAT 22 (IS-22)",
        "meta_object_id": "2012-011A",
        "meta_epoch": "2025-12-18T22:12:38.740896",
        "meta_mean_motion": 1.00270314,
        "meta_eccentricity": 0.00018291,
        "meta_inclination": 0.0167,
        "meta_ra_of_asc_node": 97.763,
        "meta_arg_of_pericenter": 188.6369,
        "meta_mean_anomaly": 206.6508,
        "meta_ephemeris_type": 0,
        "meta_classification_type": "U",
        "meta_norad_cat_id": 38098,
        "meta_element_set_no": 999,
        "meta_rev_at_epoch": 538,
        "meta_bstar": 0,
        "meta_mean_motion_dot": -3.4e-07,
        "meta_mean_motion_ddot": 0,
        "tle_line1": "1 38098U 12011A   25352.92544839 -.00000034  00000+0  00000+0 0  9990",
        "tle_line2": "2 38098   0.0167  97.7630 0001829 188.6369 206.6508  1.00270314  5388"
      },
      "geometry": {
        "type": "Point",
        "coordinates": [
          -94.83879804552848,
          -0.00891193006760776
        ]
      }
    },
    {
      "type": "Feature",
      "properties": {
        "norad_id": 38356,
        "name": "INTELSAT 19 (IS-19)",
        "group": "intelsat",
        "lat": 0.009087118552437089,
        "lon": -0.9067332417563317,
        "alt_km": 35787.3954340808,
        "timestamp": "2025-12-19T06:59:43.571708+00:00",
        "meta_object_name": "INTELSAT 19 (IS-19)",
        "meta_object_id": "2012-030A",
        "meta_epoch": "2025-12-18T19:13:18.254208",
        "meta_mean_motion": 1.00270631,
        "meta_eccentricity": 0.00027018,
        "meta_inclination": 0.011,
        "meta_ra_of_asc_node": 341.8407,
        "meta_arg_of_pericenter": 282.2225,
        "meta_mean_anomaly": 277.9231,
        "meta_ephemeris_type": 0,
        "meta_classification_type": "U",
        "meta_norad_cat_id": 38356,
        "meta_element_set_no": 999,
        "meta_rev_at_epoch": 4864,
        "meta_bstar": 0,
        "meta_mean_motion_dot": -3.2e-07,
        "meta_mean_motion_ddot": 0,
        "tle_line1": "1 38356U 12030A   25352.80090572 -.00000032  00000+0  00000+0 0  9993",
        "tle_line2": "2 38356   0.0110 341.8407 0002701 282.2225 277.9231  1.00270631 48642"
      },
      "geometry": {
        "type": "Point",
        "coordinates": [
          -0.9067332417563317,
          0.009087118552437089
        ]
      }
    },
    {
      "type": "Feature",
      "properties": {
        "norad_id": 38740,
        "name": "INTELSAT 20 (IS-20)",
        "group": "intelsat",
        "lat": -0.02317068926147472,
        "lon": -98.39783429353604,
        "alt_km": 35780.582750211586,
        "timestamp": "2025-12-19T06:59:43.571720+00:00",
        "meta_object_name": "INTELSAT 20 (IS-20)",
        "meta_object_id": "2012-043A",
        "meta_epoch": "2025-12-18T22:12:38.740896",
        "meta_mean_motion": 1.00276857,
        "meta_eccentricity": 0.0003412,
        "meta_inclination": 0.0033,
        "meta_ra_of_asc_node": 32.0531,
        "meta_arg_of_pericenter": 155.8917,
        "meta_mean_anomaly": 301.4934,
        "meta_ephemeris_type": 0,
        "meta_classification_type": "U",
        "meta_norad_cat_id": 38740,
        "meta_element_set_no": 999,
        "meta_rev_at_epoch": 4894,
        "meta_bstar": 0,
        "meta_mean_motion_dot": -1e-08,
        "meta_mean_motion_ddot": 0,
        "tle_line1": "1 38740U 12043A   25352.92544839 -.00000001  00000+0  00000+0 0  9993",
        "tle_line2": "2 38740   0.0033  32.0531 0003412 155.8917 301.4934  1.00276857 48945"
      },
      "geometry": {
        "type": "Point",
        "coordinates": [
          -98.39783429353604,
          -0.02317068926147472
        ]
      }
    },
    {
      "type": "Feature",
      "properties": {
        "norad_id": 38749,
        "name": "INTELSAT 21 (IS-21)",
        "group": "intelsat",
        "lat": -0.002967519402359758,
        "lon": 135.02945615867787,
        "alt_km": 35790.957248650826,
        "timestamp": "2025-12-19T06:59:43.571731+00:00",
        "meta_object_name": "INTELSAT 21 (IS-21)",
        "meta_object_id": "2012-045A",
        "meta_epoch": "2025-12-18T19:52:01.854336",
        "meta_mean_motion": 1.0026854,
        "meta_eccentricity": 0.00018245,
        "meta_inclination": 0.0296,
        "meta_ra_of_asc_node": 285.082,
        "meta_arg_of_pericenter": 330.2374,
        "meta_mean_anomaly": 72.3639,
        "meta_ephemeris_type": 0,
        "meta_classification_type": "U",
        "meta_norad_cat_id": 38749,
        "meta_element_set_no": 999,
        "meta_rev_at_epoch": 4871,
        "meta_bstar": 0,
        "meta_mean_motion_dot": -2.6e-06,
        "meta_mean_motion_ddot": 0,
        "tle_line1": "1 38749U 12045A   25352.82779924 -.00000260  00000+0  00000+0 0  9995",
        "tle_line2": "2 38749   0.0296 285.0820 0001824 330.2374  72.3639  1.00268540 48718"
      },
      "geometry": {
        "type": "Point",
        "coordinates": [
          135.02945615867787,
          -0.002967519402359758
        ]
      }
    }
  ]
}